OBJECT_NAME,OBJECT_ID,EPOCH,MEAN_MOTION,ECCENTRICITY,INCLINATION,RA_OF_ASC_NODE,ARG_OF_PERICENTER,MEAN_ANOMALY,EPHEMERIS_TYPE,CLASSIFICATION_TYPE,NORAD_CAT_ID,ELEMENT_SET_NO,REV_AT_EPOCH,BSTAR,MEAN_MOTION_DOT,MEAN_MOTION_DDOT
IRIDIUM 156,2018-061H,2026-06-08T04:29:22.291584,14.34219520,.0002124,86.3965,60.4925,80.8236,279.3200,0,U,43576,999,41208,.80975E-4,.247E-5,0
IRIDIUM 164,2018-061J,2026-06-08T10:43:50.405088,14.34217526,.0002059,86.3968,60.4240,88.0470,272.0961,0,U,43577,999,41216,.38823E-4,.128E-5,0
IRIDIUM 159,2018-061K,2026-06-08T11:38:38.262912,14.34219640,.0002293,86.3965,60.3452,85.1453,275.0005,0,U,43578,999,41213,.79216E-4,.242E-5,0
IRIDIUM 180,2019-002A,2026-06-08T11:37:54.892704,14.34218140,.000225,86.3973,357.2367,89.1234,271.0219,0,U,43922,999,38774,.14295E-4,.6E-6,0
IRIDIUM 176,2019-002B,2026-06-08T12:39:00.359136,14.72255985,.0002206,86.6094,357.1635,91.0348,269.1122,0,U,43923,999,39797,.12842E-3,.834E-5,0
IRIDIUM 168,2019-002C,2026-06-08T11:28:46.966368,14.34217738,.0002198,86.3977,357.3163,89.1489,270.9959,0,U,43924,999,38772,.65256E-5,.38E-6,0
IRIDIUM 173,2019-002D,2026-06-08T11:10:30.826848,14.34217641,.0002248,86.3974,357.2108,86.7000,273.4453,0,U,43925,999,38770,.45163E-4,.146E-5,0
IRIDIUM 169,2019-002E,2026-06-08T03:22:13.464768,14.38610471,.00021577,86.4235,28.9760,70.6451,289.4981,0,U,43926,999,38892,.84333969E-4,.278E-5,0
IRIDIUM 172,2019-002F,2026-06-08T12:41:50.862624,14.34218397,.0002275,86.3971,357.1923,88.8764,271.2692,0,U,43927,999,38772,.25862E-4,.92E-6,0
IRIDIUM 175,2019-002G,2026-06-08T09:41:04.507296,14.43608005,.0001366,86.4506,294.1933,215.8475,144.2634,0,U,43928,999,39771,.96297E-4,.346E-5,0
IRIDIUM 171,2019-002H,2026-06-08T12:14:26.895264,14.34217910,.0002027,86.3982,357.5052,87.2918,272.8510,0,U,43929,999,38771,.10592E-4,.49E-6,0
IRIDIUM 170,2019-002J,2026-06-08T01:22:47.883360,14.72253981,.00025398,86.6093,357.3626,89.0779,271.0729,0,U,43930,999,39791,.36320546E-4,.254E-5,0
IRIDIUM 167,2019-002K,2026-06-08T12:05:18.892032,14.34217612,.000186,86.3973,357.2249,86.0754,274.0654,0,U,43931,999,38771,.87117E-6,.22E-6,0
IRIDIUM 181,2023-068S,2026-06-08T05:34:30.529056,14.43309912,.0002287,86.4504,60.5337,90.7121,269.4342,0,U,56726,999,16114,.90087E-4,.323E-5,0
IRIDIUM 177,2023-068T,2026-06-08T11:12:05.966208,14.80224618,.0002441,86.1961,332.9344,85.7236,274.4264,0,U,56727,999,16507,.14601E-3,.1136E-4,0
IRIDIUM 174,2023-068U,2026-06-08T12:30:06.812352,14.72252308,.0002572,86.6101,357.3153,85.3729,274.7782,0,U,56728,999,16474,.1275E-3,.829E-5,0
IRIDIUM 178,2023-068V,2026-06-08T09:19:05.585376,14.80218970,.0002675,86.6546,29.0376,89.1306,271.0222,0,U,56729,999,16506,.14002E-3,.109E-4,0
IRIDIUM 179,2023-068W,2026-06-08T09:11:22.837344,14.80235684,.0002403,86.6788,37.9932,87.2212,272.9284,0,U,56730,999,16506,.12873E-3,.1004E-4,0
