IRIDIUM 156             
1 43576U 18061H   26159.18706356  .00000247  00000+0  80975-4 0  9995
2 43576  86.3965  60.4925 0002124  80.8236 279.3200 14.34219520412085
IRIDIUM 164             
1 43577U 18061J   26159.44711117  .00000128  00000+0  38823-4 0  9999
2 43577  86.3968  60.4240 0002059  88.0470 272.0961 14.34217526412163
IRIDIUM 159             
1 43578U 18061K   26159.48516508  .00000242  00000+0  79216-4 0  9999
2 43578  86.3965  60.3452 0002293  85.1453 275.0005 14.34219640412132
IRIDIUM 180             
1 43922U 19002A   26159.48466311  .00000060  00000+0  14295-4 0  9998
2 43922  86.3973 357.2367 0002250  89.1234 271.0219 14.34218140387746
IRIDIUM 176             
1 43923U 19002B   26159.52708749  .00000834  00000+0  12842-3 0  9992
2 43923  86.6094 357.1635 0002206  91.0348 269.1122 14.72255985397977
IRIDIUM 168             
1 43924U 19002C   26159.47832137  .00000038  00000+0  65256-5 0  9991
2 43924  86.3977 357.3163 0002198  89.1489 270.9959 14.34217738387729
IRIDIUM 173             
1 43925U 19002D   26159.46563457  .00000146  00000+0  45163-4 0  9991
2 43925  86.3974 357.2108 0002248  86.7000 273.4453 14.34217641387701
IRIDIUM 169             
1 43926U 19002E   26159.14043362  .00000278  00000+0  84334-4 0  9994
2 43926  86.4235  28.9760 0002157  70.6451 289.4981 14.38610471388920
IRIDIUM 172             
1 43927U 19002F   26159.52906091  .00000092  00000+0  25862-4 0  9999
2 43927  86.3971 357.1923 0002275  88.8764 271.2692 14.34218397387726
IRIDIUM 175             
1 43928U 19002G   26159.40352439  .00000346  00000+0  96297-4 0  9990
2 43928  86.4506 294.1933 0001366 215.8475 144.2634 14.43608005397718
IRIDIUM 171             
1 43929U 19002H   26159.51003351  .00000049  00000+0  10592-4 0  9993
2 43929  86.3982 357.5052 0002027  87.2918 272.8510 14.34217910387711
IRIDIUM 170             
1 43930U 19002J   26159.05749865  .00000254  00000+0  36321-4 0  9997
2 43930  86.6093 357.3626 0002539  89.0779 271.0729 14.72253981397913
IRIDIUM 167             
1 43931U 19002K   26159.50369088  .00000022  00000+0  87117-6 0  9997
2 43931  86.3973 357.2249 0001860  86.0754 274.0654 14.34217612387710
IRIDIUM 181             
1 56726U 23068S   26159.23229779  .00000323  00000+0  90087-4 0  9994
2 56726  86.4504  60.5337 0002287  90.7121 269.4342 14.43309912161147
IRIDIUM 177             
1 56727U 23068T   26159.46673572  .00001136  00000+0  14601-3 0  9994
2 56727  86.1961 332.9344 0002441  85.7236 274.4264 14.80224618165074
IRIDIUM 174             
1 56728U 23068U   26159.52091218  .00000829  00000+0  12750-3 0  9994
2 56728  86.6101 357.3153 0002572  85.3729 274.7782 14.72252308164742
IRIDIUM 178             
1 56729U 23068V   26159.38825909  .00001090  00000+0  14002-3 0  9994
2 56729  86.6546  29.0376 0002675  89.1306 271.0222 14.80218970165064
IRIDIUM 179             
1 56730U 23068W   26159.38290321  .00001004  00000+0  12873-3 0  9999
2 56730  86.6788  37.9932 0002403  87.2212 272.9284 14.80235684165063
